IRIDIUM 921 [-]         
1 24873U 97034E   23285.59786162  .00028352  00000+0  10913-2 0  9996
2 24873  86.3882  49.7060 0006732 110.7053 249.4916 15.26224975437127
IRIDIUM 26 [-]          
1 24903U 97043A   23285.59995637  .00000934  00000+0  31492-3 0  9991
2 24903  86.4023   8.0493 0002062  87.9238 272.2195 14.36036612368652
IRIDIUM 22 [-]          
1 24907U 97043E   23285.60432855  .00000958  00000+0  33030-3 0  9991
2 24907  86.4027  11.0850 0002219  92.5121 267.6329 14.34944234368752
DUMMY MASS 1 [-]        
1 24925U 97048A   23285.45024681  .00001214  00000+0  13622-3 0  9994
2 24925  86.3342  58.8583 0007940 144.4324 215.7431 14.85868519413960
DUMMY MASS 2 [-]        
1 24926U 97048B   23285.44668601  .00001224  00000+0  13818-3 0  9998
2 24926  86.3338  60.3600 0008322 155.4590 204.7032 14.85629547413754
IRIDIUM 29 [-]          
1 24944U 97051A   23285.61623550  .00000838  00000+0  28538-3 0  9990
2 24944  86.3990  41.0512 0002361  92.9100 267.2366 14.35402413365223
IRIDIUM 33 [-]          
1 24946U 97051C   23285.55724161  .00000810  00000+0  28257-3 0  9993
2 24946  86.3906  40.3521 0005815 283.8863  76.1686 14.34140605364770
IRIDIUM 28 [-]          
1 24948U 97051E   23285.57472488  .00001159  00000+0  38974-3 0  9993
2 24948  86.3998  38.9375 0001745  86.1562 273.9834 14.36335553365730
